SCD 1                   
1 22490U 93009B   26168.52087976  .00000327  00000+0  38486-4 0  9999
2 22490  24.9678 205.5170 0042067 141.2248 338.0371 14.46118916761163
TECHSAT 1B (GO-32)      
1 25397U 98043D   26168.48584789  .00000035  00000+0  35404-4 0  9993
2 25397  99.0067 161.2520 0001080 161.9506 198.1711 14.24428440451374
SCD 2                   
1 25504U 98060A   26168.17956294  .00000355  00000+0  48260-4 0  9991
2 25504  24.9954  72.2040 0016946 122.8124  10.9716 14.45525886460329
DLR-TUBSAT              
1 25757U 99029B   26168.50010189  .00000049  00000+0  23873-4 0  9991
2 25757  98.6695 164.0144 0014029 354.3005   5.8027 14.52426904433297
TERRA                   
1 25994U 99068A   26168.50570941  .00000314  00000+0  72838-4 0  9994
2 25994  97.9456 218.0393 0001606 188.2201 279.2176 14.61103332409654
MAROC-TUBSAT            
1 27004U 01056D   26168.44055534 -.00000042  00000+0  53626-5 0  9991
2 27004  99.8082 345.3048 0020339 140.6327 282.6100 13.70262458226229
AQUA                    
1 27424U 02022A   26168.54333381  .00000607  00000+0  13043-3 0  9994
2 27424  98.4277 137.8332 0001089  53.5800  60.9245 14.62158548283322
SHIYAN-1 (SY-1)         
1 28220U 04012A   26168.11837150  .00011396  00000+0  35142-3 0  9997
2 28220  97.8694 246.1820 0005599  33.0466 327.1124 15.33759861211082
AURA                    
1 28376U 04026A   26168.46540212  .00000611  00000+0  13351-3 0  9998
2 28376  98.3417 124.9209 0001212  75.6145 284.5190 14.61329439166252
IRS-P5 (CARTOSAT-1)     
1 28649U 05017A   26168.07829873  .00001259  00000+0  13247-3 0  9995
2 28649  97.5307 191.1477 0002571  80.0181 280.1328 14.91049192143805
SINAH 1                 
1 28893U 05043D   26168.53253382  .00000229  00000+0  52984-4 0  9990
2 28893  98.2861 302.8565 0013128 275.6038  84.3667 14.64157804100578
RESURS-DK 1             
1 29228U 06021A   26168.49808350  .00001714  00000+0  10235-3 0  9998
2 29228  69.9343 338.7479 0006918 291.5563  68.4865 15.13219728102622
ARIRANG-2 (KOMPSAT-2)   
1 29268U 06031A   26168.50217837  .00000196  00000+0  45195-4 0  9996
2 29268  97.8300 352.9330 0015914  73.7365  10.4585 14.64660260 61524
LAPAN-TUBSAT            
1 29709U 07001A   26168.52370190 -.00000019  00000+0  44219-5 0  9990
2 29709  98.1336 167.7553 0011880 178.1347 181.9914 14.85949593 51200
HAIYANG-1B              
1 31113U 07010A   26168.49440789  .00000068  00000+0  41815-4 0  9991
2 31113  98.3495 150.3277 0013033 195.3754 164.7035 14.31026969   689
COSMO-SKYMED 1          
1 31598U 07023A   26168.53603384  .00002172  00000+0  19349-3 0  9993
2 31598  97.8848   0.3946 0001318  98.3852 261.7518 14.97100456 29842
TERRASAR-X              
1 31698U 07026A   26166.54501914  .00000298  00000+0  17394-4 0  9998
2 31698  97.4452 174.2739 0001604  89.1769 270.9649 15.19148908 52970
WORLDVIEW-1 (WV-1)      
1 32060U 07041A   26168.48901163  .00004853  00000+0  20167-3 0  9996
2 32060  97.3882 288.2279 0002224  20.8918 339.2410 15.24269519 42929
YAOGAN-3                
1 32289U 07055A   26168.53007287  .00001281  00000+0  13601-3 0  9991
2 32289  97.8148 198.4045 0001934  80.0325 280.1111 14.90783049  5924
COSMO-SKYMED 2          
1 32376U 07059A   26168.49859932  .00000302  00000+0  44491-4 0  9994
2 32376  97.8886 352.0920 0001348  87.3699 272.7668 14.82155201  2052
RADARSAT-2              
1 32382U 07061A   26168.52760875  .00000131  00000+0  67637-4 0  9992
2 32382  98.5769 175.4552 0001305  82.5368 277.5963 14.29982362966000
CARTOSAT-2A             
1 32783U 08021A   26168.52002832  .00001039  00000+0  14638-3 0  9996
2 32783  97.7631 217.2175 0013213 107.7075 252.5580 14.79241465978857
HUANJING 1A (HJ-1A)     
1 33320U 08041A   26168.50346334  .00000788  00000+0  10053-3 0  9999
2 33320  97.6676 154.3295 0019944 133.7437 226.5433 14.83985655958458
HUANJING 1B (HJ-1B)     
1 33321U 08041B   26168.54013583  .00001246  00000+0  15681-3 0  9993
2 33321  97.6513 157.5357 0036055 179.7087 180.4155 14.83319505958461
GEOEYE 1                
1 33331U 08042A   26168.49347398  .00000359  00000+0  76309-4 0  9992
2 33331  98.1236 242.4208 0005389  68.9671 291.2108 14.64725963950192
THEOS                   
1 33396U 08049A   26168.46205139 -.00000001  00000+0  19458-4 0  9990
2 33396  98.5571 225.7370 0001240  79.8898 280.2419 14.20133222918007
COSMO-SKYMED 3          
1 33412U 08054A   26168.54156196  .00002901  00000+0  19802-3 0  9994
2 33412  97.8281  27.1178 0014118 265.6364  94.3249 15.06955642956995
YAOGAN-4                
1 33446U 08061A   26168.36948722  .00000780  00000+0  10193-3 0  9990
2 33446  97.9308 101.8784 0015723  71.9470 288.3455 14.83200359945696
GOSAT (IBUKI)           
1 33492U 09002A   26167.86562830  .00000941  00000+0  17441-3 0  9995
2 33492  98.0890 278.9506 0001527  82.1774 277.9604 14.67539630931415
DEIMOS-1                
1 35681U 09041A   26168.52550747  .00000162  00000+0  30946-4 0  9999
2 35681  97.7399 325.7379 0001645 129.8763 230.2592 14.75236522906934
DUBAISAT-1              
1 35682U 09041B   26168.36039689  .00000567  00000+0  91483-4 0  9991
2 35682  98.0052 301.6161 0011648  73.2818 286.9668 14.75122684905129
