OBJECT_NAME,OBJECT_ID,EPOCH,MEAN_MOTION,ECCENTRICITY,INCLINATION,RA_OF_ASC_NODE,ARG_OF_PERICENTER,MEAN_ANOMALY,EPHEMERIS_TYPE,CLASSIFICATION_TYPE,NORAD_CAT_ID,ELEMENT_SET_NO,REV_AT_EPOCH,BSTAR,MEAN_MOTION_DOT,MEAN_MOTION_DDOT
SCD 1,1993-009B,2026-06-17T12:30:04.011264,14.46118916,.0042067,24.9678,205.5170,141.2248,338.0371,0,U,22490,999,76116,.38486E-4,.327E-5,0
TECHSAT 1B (GO-32),1998-043D,2026-06-17T11:39:37.257696,14.24428440,.000108,99.0067,161.2520,161.9506,198.1711,0,U,25397,999,45137,.35404E-4,.35E-6,0
SCD 2,1998-060A,2026-06-17T04:18:34.238016,14.45525886,.0016946,24.9954,72.2040,122.8124,10.9716,0,U,25504,999,46032,.4826E-4,.355E-5,0
DLR-TUBSAT,1999-029B,2026-06-17T12:00:08.803296,14.52426904,.0014029,98.6695,164.0144,354.3005,5.8027,0,U,25757,999,43329,.23873E-4,.49E-6,0
TERRA,1999-068A,2026-06-17T12:08:13.293024,14.61103332,.0001606,97.9456,218.0393,188.2201,279.2176,0,U,25994,999,40965,.72838E-4,.314E-5,0
MAROC-TUBSAT,2001-056D,2026-06-17T10:34:23.981376,13.70262458,.0020339,99.8082,345.3048,140.6327,282.6100,0,U,27004,999,22622,.53626E-5,-.42E-6,0
AQUA,2002-022A,2026-06-17T13:02:24.041184,14.62158548,.0001089,98.4277,137.8332,53.5800,60.9245,0,U,27424,999,28332,.13043E-3,.607E-5,0
SHIYAN-1 (SY-1),2004-012A,2026-06-17T02:50:27.297600,15.33759861,.0005599,97.8694,246.1820,33.0466,327.1124,0,U,28220,999,21108,.35142E-3,.11396E-3,0
AURA,2004-026A,2026-06-17T11:10:10.743168,14.61329439,.0001212,98.3417,124.9209,75.6145,284.5190,0,U,28376,999,16625,.13351E-3,.611E-5,0
IRS-P5 (CARTOSAT-1),2005-017A,2026-06-17T01:52:45.010272,14.91049192,.0002571,97.5307,191.1477,80.0181,280.1328,0,U,28649,999,14380,.13247E-3,.1259E-4,0
SINAH 1,2005-043D,2026-06-17T12:46:50.922048,14.64157804,.0013128,98.2861,302.8565,275.6038,84.3667,0,U,28893,999,10057,.52984E-4,.229E-5,0
RESURS-DK 1,2006-021A,2026-06-17T11:57:14.414400,15.13219728,.0006918,69.9343,338.7479,291.5563,68.4865,0,U,29228,999,10262,.10235E-3,.1714E-4,0
ARIRANG-2 (KOMPSAT-2),2006-031A,2026-06-17T12:03:08.211168,14.64660260,.0015914,97.8300,352.9330,73.7365,10.4585,0,U,29268,999,6152,.45195E-4,.196E-5,0
LAPAN-TUBSAT,2007-001A,2026-06-17T12:34:07.844160,14.85949593,.001188,98.1336,167.7553,178.1347,181.9914,0,U,29709,999,5120,.44219E-5,-.19E-6,0
HAIYANG-1B,2007-010A,2026-06-17T11:51:56.841696,14.31026969,.0013033,98.3495,150.3277,195.3754,164.7035,0,U,31113,999,68,.41815E-4,.68E-6,0
COSMO-SKYMED 1,2007-023A,2026-06-17T12:51:53.323776,14.97100456,.0001318,97.8848,0.3946,98.3852,261.7518,0,U,31598,999,2984,.19349E-3,.2172E-4,0
TERRASAR-X,2007-026A,2026-06-15T13:04:49.653696,15.19148908,.00016045,97.4452,174.2739,89.1769,270.9649,0,U,31698,999,5297,.17393623E-4,.298E-5,0
WORLDVIEW-1 (WV-1),2007-041A,2026-06-17T11:44:10.604832,15.24269519,.0002224,97.3882,288.2279,20.8918,339.2410,0,U,32060,999,4292,.20167E-3,.4853E-4,0
YAOGAN-3,2007-055A,2026-06-17T12:43:18.295968,14.90783049,.0001934,97.8148,198.4045,80.0325,280.1111,0,U,32289,999,592,.13601E-3,.1281E-4,0
COSMO-SKYMED 2,2007-059A,2026-06-17T11:57:58.981248,14.82155201,.0001348,97.8886,352.0920,87.3699,272.7668,0,U,32376,999,205,.44491E-4,.302E-5,0
RADARSAT-2,2007-061A,2026-06-17T12:39:45.396000,14.29982362,.0001305,98.5769,175.4552,82.5368,277.5963,0,U,32382,999,96600,.67637E-4,.131E-5,0
CARTOSAT-2A,2008-021A,2026-06-17T12:28:50.446848,14.79241465,.0013213,97.7631,217.2175,107.7075,252.5580,0,U,32783,999,97885,.14638E-3,.1039E-4,0
HUANJING 1A (HJ-1A),2008-041A,2026-06-17T12:04:59.232576,14.83985655,.0019944,97.6676,154.3295,133.7437,226.5433,0,U,33320,999,95845,.10053E-3,.788E-5,0
HUANJING 1B (HJ-1B),2008-041B,2026-06-17T12:57:47.735712,14.83319505,.0036055,97.6513,157.5357,179.7087,180.4155,0,U,33321,999,95846,.15681E-3,.1246E-4,0
GEOEYE 1,2008-042A,2026-06-17T11:50:36.151872,14.64725963,.0005389,98.1236,242.4208,68.9671,291.2108,0,U,33331,999,95019,.76309E-4,.359E-5,0
THEOS,2008-049A,2026-06-17T11:05:21.240096,14.20133222,.000124,98.5571,225.7370,79.8898,280.2419,0,U,33396,999,91800,.19458E-4,-.1E-7,0
COSMO-SKYMED 3,2008-054A,2026-06-17T12:59:50.953344,15.06955642,.0014118,97.8281,27.1178,265.6364,94.3249,0,U,33412,999,95699,.19802E-3,.2901E-4,0
YAOGAN-4,2008-061A,2026-06-17T08:52:03.695808,14.83200359,.0015723,97.9308,101.8784,71.9470,288.3455,0,U,33446,999,94569,.10193E-3,.78E-5,0
GOSAT (IBUKI),2009-002A,2026-06-16T20:46:30.285120,14.67539630,.0001527,98.0890,278.9506,82.1774,277.9604,0,U,33492,999,93141,.17441E-3,.941E-5,0
DEIMOS-1,2009-041A,2026-06-17T12:36:43.845408,14.75236522,.0001645,97.7399,325.7379,129.8763,230.2592,0,U,35681,999,90693,.30946E-4,.162E-5,0
DUBAISAT-1,2009-041B,2026-06-17T08:38:58.291296,14.75122684,.0011648,98.0052,301.6161,73.2818,286.9668,0,U,35682,999,90512,.91483E-4,.567E-5,0
